QIANFAN-73              
1 63159U 25046A   25365.19553915  .00000241  00000+0  35408-3 0  9999
2 63159  88.9778 318.1132 0016992  71.4331 288.8665 13.50982758 49901
QIANFAN-74              
1 63160U 25046B   25365.25301348  .00000240  00000+0  35338-3 0  9990
2 63160  88.9778 317.9961 0001988  71.7523 288.3844 13.50979750 49974
QIANFAN-75              
1 63161U 25046C   25365.24025704  .00000294  00000+0  43607-3 0  9996
2 63161  88.9780 318.2313 0018153  73.7858 286.5289 13.50985635 49846
QIANFAN-76              
1 63162U 25046D   25365.23690594  .00000235  00000+0  34504-3 0  9992
2 63162  88.9779 318.2122 0015701  74.3667 285.9216 13.50985044 49852
QIANFAN-77              
1 63163U 25046E   25365.24897797  .00000741  00000+0  53020-3 0  9994
2 63163  88.9779 316.0663 0016247  29.5504 330.6588 13.96105421 51033
QIANFAN-78              
1 63164U 25046F   25365.27780376  .00000263  00000+0  38836-3 0  9999
2 63164  88.9778 318.0718 0017079  76.2088 284.0963 13.50983479 49938
QIANFAN-79              
1 63165U 25046G   25365.30644087  .00000268  00000+0  39661-3 0  9994
2 63165  88.9782 318.1770 0016763  74.6276 285.6726 13.50985317 49884
QIANFAN-80              
1 63166U 25046H   25365.24892409  .00000254  00000+0  37457-3 0  9997
2 63166  88.9780 317.8894 0015734  78.4764 281.8153 13.50983369 50033
